[{"OBJECT_NAME":"STARLINK-3969","OBJECT_ID":"2022-051U","EPOCH":"2026-03-09T12:58:45.806016","MEAN_MOTION":15.08827185,"ECCENTRICITY":0.00010558,"INCLINATION":53.2167,"RA_OF_ASC_NODE":129.79,"ARG_OF_PERICENTER":99.3768,"MEAN_ANOMALY":260.7343,"EPHEMERIS_TYPE":0,"CLASSIFICATION_TYPE":"U","NORAD_CAT_ID":52551,"ELEMENT_SET_NO":999,"REV_AT_EPOCH":21142,"BSTAR":0.00013659308,"MEAN_MOTION_DOT":1.886e-5,"MEAN_MOTION_DDOT":0},{"OBJECT_NAME":"KUIPER-00164","OBJECT_ID":"2025-301B","EPOCH":"2026-03-09T22:00:01.999584","MEAN_MOTION":15.08488187,"ECCENTRICITY":0.00045568,"INCLINATION":51.8847,"RA_OF_ASC_NODE":66.2292,"ARG_OF_PERICENTER":84.8156,"MEAN_ANOMALY":198.9561,"EPHEMERIS_TYPE":0,"CLASSIFICATION_TYPE":"U","NORAD_CAT_ID":67134,"ELEMENT_SET_NO":999,"REV_AT_EPOCH":541,"BSTAR":0.00024752424,"MEAN_MOTION_DOT":3.618e-5,"MEAN_MOTION_DDOT":0}]
